{
"type": "FeatureCollection",
"name": "khdtk_wanadipa_batas",
"crs": { "type": "name", "properties": { "name": "urn:ogc:def:crs:OGC:1.3:CRS84" } },
"features": [
{ "type": "Feature", "properties": { "id": 1, "nama": "Batas KHDTK Wanadipa UNDIP dari WebGIS", "sumber": "boundaryData WebGIS KHDTK Wanadipa", "luas_m2": 989817.17, "luas_ha": 98.9817 }, "geometry": { "type": "Polygon", "coordinates": [ [ [ 110.432246, -7.119358 ], [ 110.432105, -7.119354 ], [ 110.431897, -7.119365 ], [ 110.431853, -7.119439 ], [ 110.431775, -7.119531 ], [ 110.431695, -7.119642 ], [ 110.431655, -7.11975 ], [ 110.431657, -7.119915 ], [ 110.431668, -7.120113 ], [ 110.43162, -7.120179 ], [ 110.431578, -7.120191 ], [ 110.431509, -7.120184 ], [ 110.431455, -7.120153 ], [ 110.431343, -7.120083 ], [ 110.431197, -7.120009 ], [ 110.430994, -7.11999 ], [ 110.430838, -7.120008 ], [ 110.43073, -7.12008 ], [ 110.430642, -7.12014 ], [ 110.430546, -7.120229 ], [ 110.430424, -7.120353 ], [ 110.43035, -7.120494 ], [ 110.430318, -7.120642 ], [ 110.43028, -7.120839 ], [ 110.430306, -7.120983 ], [ 110.430339, -7.121087 ], [ 110.430403, -7.121246 ], [ 110.430467, -7.121388 ], [ 110.430493, -7.121462 ], [ 110.430494, -7.121595 ], [ 110.4305, -7.121773 ], [ 110.430462, -7.121896 ], [ 110.430398, -7.121978 ], [ 110.430314, -7.122032 ], [ 110.430222, -7.12207 ], [ 110.430081, -7.122115 ], [ 110.429919, -7.122167 ], [ 110.429771, -7.122241 ], [ 110.429643, -7.122326 ], [ 110.429569, -7.122394 ], [ 110.429455, -7.122489 ], [ 110.429383, -7.122545 ], [ 110.429313, -7.122613 ], [ 110.429265, -7.122621 ], [ 110.429233, -7.122585 ], [ 110.429191, -7.122547 ], [ 110.429092, -7.122463 ], [ 110.428916, -7.122341 ], [ 110.428848, -7.122287 ], [ 110.428755, -7.122261 ], [ 110.428655, -7.122223 ], [ 110.428541, -7.122191 ], [ 110.428515, -7.122143 ], [ 110.428479, -7.122048 ], [ 110.428437, -7.121952 ], [ 110.428446, -7.12191 ], [ 110.428519, -7.121916 ], [ 110.428655, -7.121914 ], [ 110.428805, -7.121916 ], [ 110.428825, -7.121886 ], [ 110.428861, -7.121815 ], [ 110.428905, -7.121741 ], [ 110.428935, -7.121685 ], [ 110.428981, -7.121619 ], [ 110.428983, -7.121514 ], [ 110.428991, -7.12139 ], [ 110.429009, -7.121286 ], [ 110.429027, -7.121225 ], [ 110.429043, -7.121167 ], [ 110.429079, -7.121165 ], [ 110.429087, -7.121127 ], [ 110.429103, -7.121077 ], [ 110.429145, -7.121045 ], [ 110.429161, -7.120997 ], [ 110.429195, -7.120955 ], [ 110.429233, -7.120892 ], [ 110.429246, -7.120844 ], [ 110.429276, -7.120796 ], [ 110.429284, -7.120517 ], [ 110.429266, -7.120387 ], [ 110.429226, -7.120255 ], [ 110.429192, -7.120243 ], [ 110.4292, -7.120174 ], [ 110.429232, -7.120128 ], [ 110.429302, -7.120126 ], [ 110.42939, -7.12013 ], [ 110.429472, -7.120102 ], [ 110.42957, -7.119983 ], [ 110.429578, -7.119893 ], [ 110.429574, -7.119622 ], [ 110.429583, -7.119444 ], [ 110.429615, -7.119396 ], [ 110.429659, -7.119351 ], [ 110.429689, -7.119287 ], [ 110.429699, -7.119177 ], [ 110.429755, -7.119099 ], [ 110.429831, -7.118966 ], [ 110.429895, -7.11889 ], [ 110.429921, -7.118834 ], [ 110.429939, -7.118778 ], [ 110.429951, -7.118683 ], [ 110.429969, -7.118641 ], [ 110.429999, -7.118597 ], [ 110.430029, -7.118551 ], [ 110.430029, -7.11834 ], [ 110.430007, -7.118256 ], [ 110.42991, -7.118244 ], [ 110.429826, -7.118226 ], [ 110.42976, -7.11818 ], [ 110.429656, -7.1181 ], [ 110.429543, -7.118006 ], [ 110.429399, -7.117906 ], [ 110.429319, -7.11781 ], [ 110.429257, -7.117703 ], [ 110.429195, -7.117701 ], [ 110.429144, -7.117679 ], [ 110.42906, -7.117635 ], [ 110.428894, -7.11761 ], [ 110.428784, -7.117556 ], [ 110.428613, -7.11748 ], [ 110.428469, -7.117418 ], [ 110.428337, -7.11736 ], [ 110.428224, -7.117303 ], [ 110.428152, -7.117275 ], [ 110.428038, -7.11726 ], [ 110.428012, -7.117228 ], [ 110.428052, -7.117205 ], [ 110.428082, -7.117157 ], [ 110.428104, -7.117099 ], [ 110.42816, -7.117071 ], [ 110.428232, -7.117051 ], [ 110.428322, -7.117047 ], [ 110.42841, -7.117035 ], [ 110.42842, -7.116988 ], [ 110.428428, -7.116934 ], [ 110.428454, -7.116878 ], [ 110.428472, -7.116798 ], [ 110.428478, -7.116645 ], [ 110.428482, -7.116433 ], [ 110.428497, -7.116237 ], [ 110.428533, -7.11619 ], [ 110.428557, -7.116158 ], [ 110.428576, -7.1161 ], [ 110.428601, -7.116046 ], [ 110.428626, -7.115985 ], [ 110.428646, -7.115945 ], [ 110.428679, -7.115875 ], [ 110.428748, -7.115782 ], [ 110.428775, -7.115822 ], [ 110.428839, -7.115859 ], [ 110.428942, -7.115923 ], [ 110.429026, -7.115979 ], [ 110.429149, -7.11604 ], [ 110.42922, -7.11609 ], [ 110.429278, -7.116126 ], [ 110.429383, -7.116129 ], [ 110.42944, -7.116106 ], [ 110.429522, -7.116084 ], [ 110.42962, -7.11607 ], [ 110.429684, -7.11604 ], [ 110.429757, -7.116028 ], [ 110.429872, -7.116027 ], [ 110.430125, -7.11595 ], [ 110.430193, -7.115928 ], [ 110.430288, -7.115899 ], [ 110.430584, -7.115819 ], [ 110.430762, -7.115767 ], [ 110.43078, -7.115719 ], [ 110.430794, -7.115676 ], [ 110.430811, -7.115557 ], [ 110.430811, -7.115409 ], [ 110.430842, -7.115234 ], [ 110.430919, -7.115239 ], [ 110.431135, -7.115244 ], [ 110.431329, -7.115244 ], [ 110.431372, -7.115211 ], [ 110.431427, -7.11511 ], [ 110.431557, -7.115115 ], [ 110.431657, -7.114996 ], [ 110.431746, -7.114867 ], [ 110.431766, -7.114723 ], [ 110.43173, -7.114656 ], [ 110.431691, -7.114582 ], [ 110.431682, -7.11451 ], [ 110.431682, -7.11435 ], [ 110.431701, -7.114307 ], [ 110.431759, -7.114264 ], [ 110.431819, -7.114151 ], [ 110.431876, -7.114096 ], [ 110.431896, -7.114077 ], [ 110.431963, -7.114032 ], [ 110.432044, -7.11401 ], [ 110.432138, -7.11401 ], [ 110.432214, -7.114027 ], [ 110.432313, -7.114023 ], [ 110.432351, -7.113963 ], [ 110.432358, -7.113865 ], [ 110.432394, -7.113769 ], [ 110.432426, -7.113692 ], [ 110.432455, -7.113637 ], [ 110.432512, -7.113549 ], [ 110.432632, -7.113408 ], [ 110.43274, -7.113288 ], [ 110.432767, -7.113212 ], [ 110.4328, -7.112879 ], [ 110.432825, -7.112726 ], [ 110.432899, -7.112527 ], [ 110.432978, -7.112382 ], [ 110.433137, -7.11226 ], [ 110.433295, -7.11219 ], [ 110.433456, -7.112112 ], [ 110.433602, -7.112042 ], [ 110.433698, -7.111966 ], [ 110.433863, -7.111851 ], [ 110.434096, -7.11172 ], [ 110.434182, -7.111684 ], [ 110.434292, -7.111641 ], [ 110.434347, -7.111574 ], [ 110.434415, -7.111459 ], [ 110.434609, -7.111163 ], [ 110.434667, -7.111063 ], [ 110.434734, -7.110859 ], [ 110.434775, -7.110785 ], [ 110.434955, -7.110606 ], [ 110.435051, -7.110539 ], [ 110.435183, -7.110498 ], [ 110.43531, -7.110446 ], [ 110.435518, -7.110367 ], [ 110.435832, -7.110207 ], [ 110.435916, -7.110138 ], [ 110.435981, -7.110006 ], [ 110.436077, -7.109872 ], [ 110.436235, -7.109683 ], [ 110.436372, -7.109554 ], [ 110.436463, -7.109499 ], [ 110.4366, -7.109428 ], [ 110.436674, -7.109399 ], [ 110.43677, -7.109359 ], [ 110.436902, -7.109311 ], [ 110.437017, -7.109237 ], [ 110.437055, -7.109182 ], [ 110.43713, -7.109069 ], [ 110.437197, -7.108986 ], [ 110.4373, -7.108902 ], [ 110.437415, -7.10879 ], [ 110.437521, -7.108733 ], [ 110.437612, -7.108668 ], [ 110.437751, -7.10858 ], [ 110.437976, -7.108441 ], [ 110.438322, -7.108209 ], [ 110.438434, -7.108128 ], [ 110.438727, -7.107937 ], [ 110.438856, -7.107849 ], [ 110.43906, -7.107758 ], [ 110.439185, -7.107722 ], [ 110.439297, -7.107706 ], [ 110.439451, -7.107689 ], [ 110.439571, -7.107682 ], [ 110.4397, -7.107613 ], [ 110.439796, -7.107553 ], [ 110.43982, -7.107539 ], [ 110.439973, -7.107496 ], [ 110.440134, -7.107455 ], [ 110.440246, -7.107439 ], [ 110.440364, -7.10747 ], [ 110.440472, -7.107504 ], [ 110.440613, -7.10752 ], [ 110.440716, -7.107533 ], [ 110.440797, -7.107521 ], [ 110.440951, -7.107483 ], [ 110.441116, -7.107409 ], [ 110.441286, -7.107301 ], [ 110.441354, -7.10716 ], [ 110.441378, -7.107064 ], [ 110.441366, -7.10688 ], [ 110.441371, -7.106428 ], [ 110.441407, -7.106368 ], [ 110.441489, -7.106236 ], [ 110.441604, -7.106067 ], [ 110.44176, -7.105904 ], [ 110.441808, -7.105832 ], [ 110.441856, -7.105722 ], [ 110.441928, -7.105627 ], [ 110.441991, -7.105531 ], [ 110.442084, -7.105421 ], [ 110.442197, -7.105337 ], [ 110.442223, -7.105356 ], [ 110.442233, -7.1054 ], [ 110.442254, -7.105494 ], [ 110.442273, -7.1056 ], [ 110.442301, -7.105707 ], [ 110.442331, -7.105861 ], [ 110.442371, -7.10598 ], [ 110.442384, -7.10609 ], [ 110.442395, -7.106176 ], [ 110.442412, -7.106272 ], [ 110.442443, -7.106377 ], [ 110.442468, -7.106505 ], [ 110.442498, -7.106661 ], [ 110.442522, -7.106824 ], [ 110.442546, -7.106926 ], [ 110.44257, -7.107084 ], [ 110.442588, -7.107198 ], [ 110.442623, -7.107444 ], [ 110.442645, -7.107603 ], [ 110.442683, -7.107823 ], [ 110.44271, -7.108072 ], [ 110.442764, -7.108246 ], [ 110.442824, -7.108501 ], [ 110.442855, -7.108677 ], [ 110.442901, -7.10893 ], [ 110.442937, -7.109195 ], [ 110.442956, -7.109377 ], [ 110.44299, -7.109562 ], [ 110.442995, -7.10958 ], [ 110.443034, -7.109732 ], [ 110.44307, -7.109891 ], [ 110.443087, -7.110033 ], [ 110.443115, -7.110209 ], [ 110.443141, -7.11041 ], [ 110.443145, -7.110512 ], [ 110.443079, -7.11058 ], [ 110.442997, -7.110657 ], [ 110.442965, -7.110735 ], [ 110.442925, -7.110747 ], [ 110.442823, -7.110791 ], [ 110.442758, -7.110824 ], [ 110.442633, -7.110888 ], [ 110.442513, -7.110932 ], [ 110.442399, -7.110926 ], [ 110.442314, -7.110908 ], [ 110.442122, -7.110895 ], [ 110.441994, -7.110891 ], [ 110.441932, -7.110889 ], [ 110.441828, -7.110901 ], [ 110.441788, -7.110995 ], [ 110.441738, -7.111094 ], [ 110.44169, -7.111228 ], [ 110.441628, -7.111356 ], [ 110.441576, -7.111485 ], [ 110.44152, -7.111575 ], [ 110.441452, -7.111706 ], [ 110.441292, -7.111866 ], [ 110.441174, -7.111979 ], [ 110.441054, -7.112083 ], [ 110.440994, -7.112184 ], [ 110.440908, -7.112224 ], [ 110.440803, -7.112328 ], [ 110.440625, -7.112397 ], [ 110.440459, -7.112463 ], [ 110.440385, -7.112517 ], [ 110.440241, -7.112557 ], [ 110.439992, -7.1126 ], [ 110.439844, -7.112622 ], [ 110.439662, -7.112644 ], [ 110.43942, -7.112655 ], [ 110.439289, -7.112647 ], [ 110.439195, -7.112613 ], [ 110.439111, -7.112577 ], [ 110.438997, -7.112537 ], [ 110.43889, -7.112521 ], [ 110.438834, -7.112477 ], [ 110.438742, -7.112417 ], [ 110.438618, -7.112341 ], [ 110.438504, -7.112251 ], [ 110.438347, -7.112141 ], [ 110.438285, -7.112129 ], [ 110.438243, -7.112157 ], [ 110.438185, -7.112229 ], [ 110.438127, -7.112347 ], [ 110.438077, -7.112428 ], [ 110.438005, -7.112562 ], [ 110.437973, -7.112652 ], [ 110.437925, -7.112755 ], [ 110.437879, -7.112845 ], [ 110.437845, -7.112953 ], [ 110.437799, -7.113066 ], [ 110.437795, -7.113218 ], [ 110.437804, -7.113455 ], [ 110.437814, -7.113515 ], [ 110.437828, -7.113595 ], [ 110.437844, -7.113774 ], [ 110.437874, -7.113922 ], [ 110.437879, -7.114038 ], [ 110.437883, -7.114285 ], [ 110.437923, -7.114397 ], [ 110.437943, -7.114496 ], [ 110.437968, -7.114626 ], [ 110.438002, -7.114766 ], [ 110.438074, -7.114957 ], [ 110.438175, -7.115157 ], [ 110.438185, -7.115356 ], [ 110.438171, -7.115502 ], [ 110.438053, -7.115721 ], [ 110.437959, -7.1159 ], [ 110.437807, -7.115988 ], [ 110.437655, -7.115996 ], [ 110.43745, -7.115984 ], [ 110.437308, -7.115969 ], [ 110.4372, -7.115959 ], [ 110.437056, -7.115951 ], [ 110.436977, -7.115949 ], [ 110.436965, -7.115987 ], [ 110.436964, -7.116011 ], [ 110.436962, -7.116049 ], [ 110.43693, -7.116105 ], [ 110.436924, -7.116222 ], [ 110.436898, -7.116531 ], [ 110.43685, -7.116627 ], [ 110.436728, -7.116719 ], [ 110.436558, -7.116868 ], [ 110.436468, -7.1169 ], [ 110.436374, -7.116902 ], [ 110.436283, -7.116882 ], [ 110.436197, -7.116872 ], [ 110.436141, -7.116887 ], [ 110.436141, -7.116927 ], [ 110.436113, -7.116997 ], [ 110.436059, -7.117041 ], [ 110.435965, -7.117146 ], [ 110.435857, -7.117242 ], [ 110.435715, -7.117378 ], [ 110.435593, -7.117495 ], [ 110.435479, -7.117646 ], [ 110.435387, -7.117768 ], [ 110.435303, -7.117892 ], [ 110.435239, -7.118071 ], [ 110.435121, -7.118284 ], [ 110.434969, -7.118553 ], [ 110.434685, -7.118752 ], [ 110.434515, -7.118876 ], [ 110.434419, -7.118948 ], [ 110.434305, -7.119047 ], [ 110.434173, -7.119077 ], [ 110.43408, -7.119091 ], [ 110.43398, -7.119091 ], [ 110.433856, -7.119063 ], [ 110.433712, -7.119062 ], [ 110.43354, -7.119068 ], [ 110.433419, -7.119084 ], [ 110.433233, -7.119118 ], [ 110.433105, -7.119137 ], [ 110.432981, -7.119237 ], [ 110.432849, -7.119325 ], [ 110.432775, -7.119394 ], [ 110.432719, -7.119409 ], [ 110.432668, -7.119422 ], [ 110.432522, -7.119422 ], [ 110.432436, -7.119394 ], [ 110.432246, -7.119358 ] ], [ [ 110.441588, -7.110408 ], [ 110.441627, -7.110418 ], [ 110.441479, -7.11038 ], [ 110.441588, -7.110408 ] ] ] } }
]
}
